ONEWEB-0012             
1 44057U 19010A   26202.29979975 -.00000015  00000+0 -72407-4 0  9991
2 44057  87.9077 222.0085 0001646  96.4173 263.7145 13.16593806356055
ONEWEB-0010             
1 44058U 19010B   26202.09716059 -.00000002  00000+0 -40101-4 0  9994
2 44058  87.9078 222.0451 0002351  97.5470 262.5928 13.16593939356075
ONEWEB-0008             
1 44059U 19010C   26202.12248885  .00000199  00000+0  48810-3 0  9995
2 44059  87.9076 222.0349 0002091  85.7194 274.4176 13.16594285356198
ONEWEB-0007             
1 44060U 19010D   26202.10850365 -.00000061  00000+0 -19541-3 0  9996
2 44060  87.8974 252.4618 0002027 105.5854 254.5500 13.15547894355838
ONEWEB-0006             
1 44061U 19010E   26202.11244035 -.00000228  00000+0 -64022-3 0  9998
2 44061  87.8984 252.4285 0002198  96.0509 264.0872 13.15548268355889
ONEWEB-0011             
1 44062U 19010F   26202.15681262 -.00000157  00000+0 -44986-3 0  9998
2 44062  87.8990 252.4300 0002228  93.8119 266.3266 13.15548734355881
ONEWEB-0013             
1 45131U 20008A   26202.09644901  .00000759  00000+0  21661-2 0  9997
2 45131  87.8492  45.9779 0000810  80.5897 279.5322 13.09458797310503
ONEWEB-0017             
1 45132U 20008B   26202.05521210  .00000583  00000+0  16335-2 0  9998
2 45132  87.8812  29.5179 0002062  91.4343 268.7020 13.10373642312380
ONEWEB-0020             
1 45133U 20008C   26202.02465090 -.00000301  00000+0 -89860-3 0  9993
2 45133  87.8825  29.5241 0001806  87.9330 272.2004 13.10375652312774
ONEWEB-0021             
1 45134U 20008D   26202.26900240  .00000448  00000+0  12463-2 0  9995
2 45134  87.8816  29.4894 0001796  92.4215 267.7118 13.10374831313111
ONEWEB-0023             
1 45136U 20008F   26202.28004313  .00000707  00000+0  19899-2 0  9993
2 45136  87.8822  29.4713 0001757  83.7579 276.3748 13.10371670312542
ONEWEB-0024             
1 45137U 20008G   26202.02308409 -.00000330  00000+0 -98248-3 0  9999
2 45137  87.8832  29.5167 0001847  90.5959 269.5381 13.10374902312678
ONEWEB-0025             
1 45138U 20008H   26202.02280870 -.00000415  00000+0 -12251-2 0  9994
2 45138  87.8832  29.5065 0002112  78.4748 281.6617 13.10374878313000
ONEWEB-0026             
1 45139U 20008J   26201.95803058 -.00000308  00000+0 -90568-3 0  9994
2 45139  87.8888  14.3428 0001975  91.5086 268.6269 13.11415671315530
ONEWEB-0028             
1 45140U 20008K   26202.00976034  .00000537  00000+0  14791-2 0  9993
2 45140  87.8884  14.3396 0001236  91.6094 268.5176 13.11415955313058
ONEWEB-0032             
1 45141U 20008L   26202.05705205  .00000560  00000+0  15665-2 0  9996
2 45141  87.8815  29.5196 0001383  82.1942 277.9342 13.10371579312734
ONEWEB-0033             
1 45142U 20008M   26202.26051525  .00000013  00000+0 -39978-6 0  9990
2 45142  87.8816  29.4851 0002319  93.7930 266.3462 13.10375429312674
ONEWEB-0035             
1 45143U 20008N   26202.05194245  .00000653  00000+0  18353-2 0  9994
2 45143  87.8816  29.5200 0001843  91.0058 269.1281 13.10375829312378
ONEWEB-0036             
1 45144U 20008P   26202.25869764 -.00000143  00000+0 -44542-3 0  9998
2 45144  87.8837  29.4972 0001667  84.6007 275.5311 13.10377343312821
ONEWEB-0038             
1 45145U 20008Q   26202.19723099 -.00000536  00000+0 -15496-2 0  9993
2 45145  87.8903  14.3091 0002414 136.3742 223.7577 13.11416673314780
ONEWEB-0039             
1 45146U 20008R   26202.03484269  .00000257  00000+0  70077-3 0  9995
2 45146  87.8823  29.5211 0001307  89.4859 270.6418 13.10375459312598
ONEWEB-0040             
1 45147U 20008S   26202.02804015 -.00000104  00000+0 -33558-3 0  9996
2 45147  87.8819  29.5328 0001768  78.7094 281.4232 13.10375372312291
ONEWEB-0043             
1 45149U 20008U   26202.25894360 -.00000329  00000+0 -97817-3 0  9992
2 45149  87.8826  29.4766 0001290  86.9633 273.1642 13.10376013312641
ONEWEB-0044             
1 45150U 20008V   26202.05860174  .00000510  00000+0  14255-2 0  9992
2 45150  87.8824  29.5184 0001700  87.2832 272.8490 13.10373097312913
ONEWEB-0045             
1 45151U 20008W   26202.03941196 -.00000443  00000+0 -12870-2 0  9993
2 45151  87.8896  14.3208 0001695  94.3189 265.8133 13.11415862314847
ONEWEB-0047             
1 45152U 20008X   26202.05167879  .00000634  00000+0  17812-2 0  9995
2 45152  87.8824  29.5188 0001962  94.8492 265.2859 13.10371708312636
ONEWEB-0048             
1 45153U 20008Y   26202.27580484  .00000637  00000+0  17884-2 0  9993
2 45153  87.8816  29.4926 0001761  92.9720 267.1609 13.10374502312276
ONEWEB-0049             
1 45154U 20008Z   26202.27904717  .00000714  00000+0  20090-2 0  9992
2 45154  87.8815  29.4808 0001783  75.4576 284.6750 13.10372456312495
ONEWEB-0051             
1 45155U 20008AA  26202.03771413 -.00000433  00000+0 -12577-2 0  9993
2 45155  87.8892  14.3266 0001812  91.8706 268.2630 13.11416295315525
ONEWEB-0052             
1 45156U 20008AB  26202.07061149 -.00000154  00000+0 -47736-3 0  9992
2 45156  87.8819  29.5102 0001645  79.5926 280.5387 13.10371338312376
