OBJECT_NAME,OBJECT_ID,EPOCH,MEAN_MOTION,ECCENTRICITY,INCLINATION,RA_OF_ASC_NODE,ARG_OF_PERICENTER,MEAN_ANOMALY,EPHEMERIS_TYPE,CLASSIFICATION_TYPE,NORAD_CAT_ID,ELEMENT_SET_NO,REV_AT_EPOCH,BSTAR,MEAN_MOTION_DOT,MEAN_MOTION_DDOT
ONEWEB-0012,2019-010A,2026-07-21T07:11:42.698400,13.16593806,.00016464,87.9077,222.0085,96.4173,263.7145,0,U,44057,999,35605,-.72407321E-4,-.15E-6,0
ONEWEB-0010,2019-010B,2026-07-21T02:19:54.674976,13.16593939,.00023513,87.9078,222.0451,97.5470,262.5928,0,U,44058,999,35607,-.40101103E-4,-.2E-7,0
ONEWEB-0008,2019-010C,2026-07-21T02:56:23.036640,13.16594285,.00020916,87.9076,222.0349,85.7194,274.4176,0,U,44059,999,35619,.48809655E-3,.199E-5,0
ONEWEB-0007,2019-010D,2026-07-21T02:36:14.715360,13.15547894,.00020273,87.8974,252.4618,105.5854,254.5500,0,U,44060,999,35583,-.19540869E-3,-.61E-6,0
ONEWEB-0006,2019-010E,2026-07-21T02:41:54.846240,13.15548268,.00021989,87.8984,252.4285,96.0509,264.0872,0,U,44061,999,35588,-.64022447E-3,-.228E-5,0
ONEWEB-0011,2019-010F,2026-07-21T03:45:48.610368,13.15548734,.00022287,87.8990,252.4300,93.8119,266.3266,0,U,44062,999,35588,-.44985562E-3,-.157E-5,0
ONEWEB-0013,2020-008A,2026-07-21T02:18:53.194464,13.09458797,.00008101,87.8492,45.9779,80.5897,279.5322,0,U,45131,999,31050,.21661379E-2,.759E-5,0
ONEWEB-0017,2020-008B,2026-07-21T01:19:30.325440,13.10373642,.00020622,87.8812,29.5179,91.4343,268.7020,0,U,45132,999,31238,.16335253E-2,.583E-5,0
ONEWEB-0020,2020-008C,2026-07-21T00:35:29.837760,13.10375652,.00018065,87.8825,29.5241,87.9330,272.2004,0,U,45133,999,31277,-.89859897E-3,-.301E-5,0
ONEWEB-0021,2020-008D,2026-07-21T06:27:21.807360,13.10374831,.00017961,87.8816,29.4894,92.4215,267.7118,0,U,45134,999,31311,.12462632E-2,.448E-5,0
ONEWEB-0023,2020-008F,2026-07-21T06:43:15.726432,13.10371670,.0001757,87.8822,29.4713,83.7579,276.3748,0,U,45136,999,31254,.19898609E-2,.707E-5,0
ONEWEB-0024,2020-008G,2026-07-21T00:33:14.465376,13.10374902,.00018475,87.8832,29.5167,90.5959,269.5381,0,U,45137,999,31267,-.98248358E-3,-.33E-5,0
ONEWEB-0025,2020-008H,2026-07-21T00:32:50.671680,13.10374878,.00021123,87.8832,29.5065,78.4748,281.6617,0,U,45138,999,31300,-.12251188E-2,-.415E-5,0
ONEWEB-0026,2020-008J,2026-07-20T22:59:33.842112,13.11415671,.00019753,87.8888,14.3428,91.5086,268.6269,0,U,45139,999,31553,-.90568027E-3,-.308E-5,0
ONEWEB-0028,2020-008K,2026-07-21T00:14:03.293376,13.11415955,.00012369,87.8884,14.3396,91.6094,268.5176,0,U,45140,999,31305,.14790742E-2,.537E-5,0
ONEWEB-0032,2020-008L,2026-07-21T01:22:09.297120,13.10371579,.00013833,87.8815,29.5196,82.1942,277.9342,0,U,45141,999,31273,.1566548E-2,.56E-5,0
ONEWEB-0033,2020-008M,2026-07-21T06:15:08.517600,13.10375429,.00023191,87.8816,29.4851,93.7930,266.3462,0,U,45142,999,31267,-.399778E-6,.13E-6,0
ONEWEB-0035,2020-008N,2026-07-21T01:14:47.827680,13.10375829,.0001843,87.8816,29.5200,91.0058,269.1281,0,U,45143,999,31237,.18353048E-2,.653E-5,0
ONEWEB-0036,2020-008P,2026-07-21T06:12:31.476096,13.10377343,.00016672,87.8837,29.4972,84.6007,275.5311,0,U,45144,999,31282,-.44542358E-3,-.143E-5,0
ONEWEB-0038,2020-008Q,2026-07-21T04:44:00.757536,13.11416673,.00024141,87.8903,14.3091,136.3742,223.7577,0,U,45145,999,31478,-.15496443E-2,-.536E-5,0
ONEWEB-0039,2020-008R,2026-07-21T00:50:10.408416,13.10375459,.00013074,87.8823,29.5211,89.4859,270.6418,0,U,45146,999,31259,.70076628E-3,.257E-5,0
ONEWEB-0040,2020-008S,2026-07-21T00:40:22.668960,13.10375372,.00017687,87.8819,29.5328,78.7094,281.4232,0,U,45147,999,31229,-.33558138E-3,-.104E-5,0
ONEWEB-0043,2020-008U,2026-07-21T06:12:52.727040,13.10376013,.00012903,87.8826,29.4766,86.9633,273.1642,0,U,45149,999,31264,-.97816904E-3,-.329E-5,0
ONEWEB-0044,2020-008V,2026-07-21T01:24:23.190336,13.10373097,.00017003,87.8824,29.5184,87.2832,272.8490,0,U,45150,999,31291,.14254793E-2,.51E-5,0
ONEWEB-0045,2020-008W,2026-07-21T00:56:45.193344,13.11415862,.0001695,87.8896,14.3208,94.3189,265.8133,0,U,45151,999,31484,-.12870092E-2,-.443E-5,0
ONEWEB-0047,2020-008X,2026-07-21T01:14:25.047456,13.10371708,.00019629,87.8824,29.5188,94.8492,265.2859,0,U,45152,999,31263,.17811662E-2,.634E-5,0
ONEWEB-0048,2020-008Y,2026-07-21T06:37:09.538176,13.10374502,.00017611,87.8816,29.4926,92.9720,267.1609,0,U,45153,999,31227,.17884233E-2,.637E-5,0
ONEWEB-0049,2020-008Z,2026-07-21T06:41:49.675488,13.10372456,.00017835,87.8815,29.4808,75.4576,284.6750,0,U,45154,999,31249,.2009016E-2,.714E-5,0
ONEWEB-0051,2020-008AA,2026-07-21T00:54:18.500832,13.11416295,.00018126,87.8892,14.3266,91.8706,268.2630,0,U,45155,999,31552,-.12576652E-2,-.433E-5,0
ONEWEB-0052,2020-008AB,2026-07-21T01:41:40.832736,13.10371338,.00016455,87.8819,29.5102,79.5926,280.5387,0,U,45156,999,31237,-.47735808E-3,-.154E-5,0
